COSMOS 2251 DEB         
1 37312U 93036BKC 17345.05022890  .00000255  00000-0  91468-4 0  9997
2 37312  74.0330 212.1406 0020564 307.7911  52.1380 14.38685268440633
